[{"id":"49291","name":"ONEWEB-0365","tle1":"1 49291U 21090N   26175.61675624  .00000057  00000+0  11034-3 0  9998","tle2":"2 49291  87.9186 303.4869 0001882 102.4004 257.7340 13.19725329227404"},{"id":"49292","name":"ONEWEB-0366","tle1":"1 49292U 21090P   26175.59096114  .00000082  00000+0  18719-3 0  9992","tle2":"2 49292  87.8965 288.2309 0002003 100.0555 260.0801 13.14503890228535"},{"id":"49293","name":"ONEWEB-0367","tle1":"1 49293U 21090Q   26176.26914732 -.00000063  00000+0 -18781-3 0  9993","tle2":"2 49293  87.9200 272.8303 0002119 104.4798 255.6571 13.20772389230891"},{"id":"49294","name":"ONEWEB-0368","tle1":"1 49294U 21090R   26176.24304457  .00000030  00000+0  41541-4 0  9992","tle2":"2 49294  87.9187 272.8447 0001335  94.4129 265.7157 13.20770827232046"},{"id":"49295","name":"ONEWEB-0369","tle1":"1 49295U 21090S   26176.29437144  .00000012  00000+0 -32192-5 0  9992","tle2":"2 49295  87.9176 303.3587 0001819 100.4539 259.6799 13.19725370227487"},{"id":"49296","name":"ONEWEB-0370","tle1":"1 49296U 21090T   26176.20264289  .00000017  00000+0  95800-5 0  9991","tle2":"2 49296  87.9200 272.8434 0002339 102.3283 257.8112 13.20771034230924"},{"id":"49297","name":"ONEWEB-0371","tle1":"1 49297U 21090U   26175.61989695  .00000067  00000+0  13558-3 0  9994","tle2":"2 49297  87.9184 303.4861 0001921 102.3074 257.8274 13.19724348227430"},{"id":"49298","name":"ONEWEB-0372","tle1":"1 49298U 21090V   26176.26816452 -.00003869  00000+0 -95491-2 0  9997","tle2":"2 49298  87.9151 272.8294 0001760 105.5340 254.5988 13.20793727230907"},{"id":"49299","name":"ONEWEB-0373","tle1":"1 49299U 21090W   26176.29355124  .00000012  00000+0 -13401-5 0  9995","tle2":"2 49299  87.9194 272.8267 0002111  98.2426 261.8947 13.20771823232090"},{"id":"49300","name":"ONEWEB-0374","tle1":"1 49300U 21090X   26175.57827000 -.00000155  00000+0 -45199-3 0  9991","tle2":"2 49300  87.8973 288.2247 0002008  83.4570 276.6788 13.14503776228531"},{"id":"49301","name":"ONEWEB-0375","tle1":"1 49301U 21090Y   26176.28177009  .00000028  00000+0  36583-4 0  9993","tle2":"2 49301  87.9198 272.8211 0002133  84.0820 276.0557 13.20772048231591"},{"id":"49302","name":"ONEWEB-0376","tle1":"1 49302U 21090Z   26175.61833084  .00000073  00000+0  14977-3 0  9994","tle2":"2 49302  87.9183 303.4863 0001794 104.5614 255.5717 13.19725808227439"},{"id":"49303","name":"ONEWEB-0377","tle1":"1 49303U 21090AA  26176.26842778 -.00000005  00000+0 -45358-4 0  9992","tle2":"2 49303  87.9197 272.8255 0002159  94.8098 265.3282 13.20772588231588"},{"id":"49304","name":"ONEWEB-0378","tle1":"1 49304U 21090AB  26176.28864031  .00000082  00000+0  16925-3 0  9991","tle2":"2 49304  87.9189 272.8261 0001980  96.1794 263.9565 13.20771332230859"},{"id":"49305","name":"ONEWEB-0379","tle1":"1 49305U 21090AC  26176.25857067 -.00000269  00000+0 -75898-3 0  9993","tle2":"2 49305  87.8972 288.0998 0001885  96.9074 263.2271 13.14503261228624"},{"id":"49306","name":"ONEWEB-0380","tle1":"1 49306U 21090AD  26176.29753326  .00000046  00000+0  83656-4 0  9994","tle2":"2 49306  87.9177 303.3557 0002107  95.8459 264.2914 13.19725340227496"},{"id":"49307","name":"ONEWEB-0381","tle1":"1 49307U 21090AE  26176.26492867  .00000010  00000+0 -69991-5 0  9991","tle2":"2 49307  87.9198 272.8309 0002017  92.3046 267.8318 13.20772699230895"},{"id":"49308","name":"ONEWEB-0382","tle1":"1 49308U 21090AF  26176.25146161 -.00000069  00000+0 -20146-3 0  9996","tle2":"2 49308  87.9197 272.8276 0001902  91.8566 268.2785 13.20770650230888"},{"id":"49309","name":"ONEWEB-0383","tle1":"1 49309U 21090AG  26176.25222707 -.00000059  00000+0 -19412-3 0  9991","tle2":"2 49309  87.8976 288.0922 0001822  97.4039 262.7298 13.14501630228651"},{"id":"49310","name":"ONEWEB-0384","tle1":"1 49310U 21090AH  26176.23984991  .00000035  00000+0  55126-4 0  9996","tle2":"2 49310  87.9198 272.8737 0001848  87.9765 272.1580 13.20812650230895"},{"id":"49311","name":"ONEWEB-0385","tle1":"1 49311U 21090AJ  26176.24472298  .00000022  00000+0  23047-4 0  9993","tle2":"2 49311  87.9196 272.8343 0001912  94.3870 265.7482 13.20772104230863"},{"id":"49312","name":"ONEWEB-0386","tle1":"1 49312U 21090AK  26176.26156497  .00000005  00000+0 -20681-4 0  9999","tle2":"2 49312  87.9202 272.8222 0001857  93.4815 266.6531 13.20772160230884"},{"id":"49313","name":"ONEWEB-0387","tle1":"1 49313U 21090AL  26176.24640843 -.00000038  00000+0 -12546-3 0  9998","tle2":"2 49313  87.9188 272.8465 0002242  92.5381 267.6009 13.20772234230887"},{"id":"49314","name":"ONEWEB-0388","tle1":"1 49314U 21090AM  26176.29279100 -.00002853  00000+0 -71593-2 0  9991","tle2":"2 49314  87.9176 303.3543 0001956  92.9570 267.1787 13.19740308227482"},{"id":"50469","name":"ONEWEB-0389","tle1":"1 50469U 21132A   26176.24795310 -.00000010  00000+0 -59702-4 0  9995","tle2":"2 50469  87.9131   4.2642 0002065  80.6914 279.4451 13.17648569219143"},{"id":"50470","name":"ONEWEB-0390","tle1":"1 50470U 21132B   26176.02183105  .00000167  00000+0  39579-3 0  9996","tle2":"2 50470  87.9132   4.3102 0002047  93.4786 266.6579 13.17649440219112"},{"id":"50471","name":"ONEWEB-0391","tle1":"1 50471U 21132C   26176.25132877 -.00000022  00000+0 -90652-4 0  9994","tle2":"2 50471  87.9133   4.2742 0002605  79.3788 280.7637 13.17648657219142"},{"id":"50472","name":"ONEWEB-0392","tle1":"1 50472U 21132D   26176.05389996  .00000086  00000+0  18928-3 0  9992","tle2":"2 50472  87.9142   4.2823 0002121  80.8704 279.2668 13.17649787219154"},{"id":"50473","name":"ONEWEB-0393","tle1":"1 50473U 21132E   26176.25722573  .00000094  00000+0  20843-3 0  9995","tle2":"2 50473  87.9132   4.2585 0001952  85.0562 275.0792 13.17650041219178"},{"id":"50474","name":"ONEWEB-0394","tle1":"1 50474U 21132F   26175.98926687  .00000011  00000+0 -41411-5 0  9993","tle2":"2 50474  87.9174 333.8895 0001764  89.7775 270.3559 13.18688353222629"}]