OBJECT_NAME,OBJECT_ID,EPOCH,MEAN_MOTION,ECCENTRICITY,INCLINATION,RA_OF_ASC_NODE,ARG_OF_PERICENTER,MEAN_ANOMALY,EPHEMERIS_TYPE,CLASSIFICATION_TYPE,NORAD_CAT_ID,ELEMENT_SET_NO,REV_AT_EPOCH,BSTAR,MEAN_MOTION_DOT,MEAN_MOTION_DDOT
ONEWEB-0365,2021-090N,2026-06-24T14:48:07.739136,13.19725329,.00018823,87.9186,303.4869,102.4004,257.7340,0,U,49291,999,22740,.11034116E-3,.57E-6,0
ONEWEB-0366,2021-090P,2026-06-24T14:10:59.042496,13.14503890,.00020032,87.8965,288.2309,100.0555,260.0801,0,U,49292,999,22853,.18718691E-3,.82E-6,0
ONEWEB-0367,2021-090Q,2026-06-25T06:27:34.328448,13.20772389,.00021198,87.9200,272.8303,104.4798,255.6571,0,U,49293,999,23089,-.18780773E-3,-.63E-6,0
ONEWEB-0368,2021-090R,2026-06-25T05:49:59.050848,13.20770827,.00013353,87.9187,272.8447,94.4129,265.7157,0,U,49294,999,23204,.41540531E-4,.3E-6,0
ONEWEB-0369,2021-090S,2026-06-25T07:03:53.692416,13.19725370,.00018192,87.9176,303.3587,100.4539,259.6799,0,U,49295,999,22748,-.3219244E-5,.12E-6,0
ONEWEB-0370,2021-090T,2026-06-25T04:51:48.345696,13.20771034,.00023394,87.9200,272.8434,102.3283,257.8112,0,U,49296,999,23092,.9580044E-5,.17E-6,0
ONEWEB-0371,2021-090U,2026-06-24T14:52:39.096480,13.19724348,.00019213,87.9184,303.4861,102.3074,257.8274,0,U,49297,999,22743,.13557931E-3,.67E-6,0
ONEWEB-0372,2021-090V,2026-06-25T06:26:09.414528,13.20793727,.00017608,87.9151,272.8294,105.5340,254.5988,0,U,49298,999,23090,-.95491028E-2,-.3869E-4,0
ONEWEB-0373,2021-090W,2026-06-25T07:02:42.827136,13.20771823,.00021114,87.9194,272.8267,98.2426,261.8947,0,U,49299,999,23209,-.1340058E-5,.12E-6,0
ONEWEB-0374,2021-090X,2026-06-24T13:52:42.528000,13.14503776,.0002008,87.8973,288.2247,83.4570,276.6788,0,U,49300,999,22853,-.45198586E-3,-.155E-5,0
ONEWEB-0375,2021-090Y,2026-06-25T06:45:44.935776,13.20772048,.00021336,87.9198,272.8211,84.0820,276.0557,0,U,49301,999,23159,.36582935E-4,.28E-6,0
ONEWEB-0376,2021-090Z,2026-06-24T14:50:23.784576,13.19725808,.00017943,87.9183,303.4863,104.5614,255.5717,0,U,49302,999,22743,.14977403E-3,.73E-6,0
ONEWEB-0377,2021-090AA,2026-06-25T06:26:32.160192,13.20772588,.00021596,87.9197,272.8255,94.8098,265.3282,0,U,49303,999,23158,-.4535806E-4,-.5E-7,0
ONEWEB-0378,2021-090AB,2026-06-25T06:55:38.522784,13.20771332,.00019809,87.9189,272.8261,96.1794,263.9565,0,U,49304,999,23085,.16925397E-3,.82E-6,0
ONEWEB-0379,2021-090AC,2026-06-25T06:12:20.505888,13.14503261,.00018859,87.8972,288.0998,96.9074,263.2271,0,U,49305,999,22862,-.75897622E-3,-.269E-5,0
ONEWEB-0380,2021-090AD,2026-06-25T07:08:26.873664,13.19725340,.00021079,87.9177,303.3557,95.8459,264.2914,0,U,49306,999,22749,.83656416E-4,.46E-6,0
ONEWEB-0381,2021-090AE,2026-06-25T06:21:29.837088,13.20772699,.00020174,87.9198,272.8309,92.3046,267.8318,0,U,49307,999,23089,-.6999096E-5,.1E-6,0
ONEWEB-0382,2021-090AF,2026-06-25T06:02:06.283104,13.20770650,.00019027,87.9197,272.8276,91.8566,268.2785,0,U,49308,999,23088,-.20145793E-3,-.69E-6,0
ONEWEB-0383,2021-090AG,2026-06-25T06:03:12.418848,13.14501630,.00018224,87.8976,288.0922,97.4039,262.7298,0,U,49309,999,22865,-.19411799E-3,-.59E-6,0
ONEWEB-0384,2021-090AH,2026-06-25T05:45:23.032224,13.20812650,.00018485,87.9198,272.8737,87.9765,272.1580,0,U,49310,999,23089,.55125788E-4,.35E-6,0
ONEWEB-0385,2021-090AJ,2026-06-25T05:52:24.065472,13.20772104,.00019122,87.9196,272.8343,94.3870,265.7482,0,U,49311,999,23086,.23046671E-4,.22E-6,0
ONEWEB-0386,2021-090AK,2026-06-25T06:16:39.213408,13.20772160,.00018578,87.9202,272.8222,93.4815,266.6531,0,U,49312,999,23088,-.206808E-4,.5E-7,0
ONEWEB-0387,2021-090AL,2026-06-25T05:54:49.688352,13.20772234,.00022429,87.9188,272.8465,92.5381,267.6009,0,U,49313,999,23088,-.12545946E-3,-.38E-6,0
ONEWEB-0388,2021-090AM,2026-06-25T07:01:37.142400,13.19740308,.00019567,87.9176,303.3543,92.9570,267.1787,0,U,49314,999,22748,-.71592725E-2,-.2853E-4,0
ONEWEB-0389,2021-132A,2026-06-25T05:57:03.147840,13.17648569,.00020651,87.9131,4.2642,80.6914,279.4451,0,U,50469,999,21914,-.59702236E-4,-.1E-6,0
ONEWEB-0390,2021-132B,2026-06-25T00:31:26.202720,13.17649440,.0002047,87.9132,4.3102,93.4786,266.6579,0,U,50470,999,21911,.39578915E-3,.167E-5,0
ONEWEB-0391,2021-132C,2026-06-25T06:01:54.805728,13.17648657,.00026059,87.9133,4.2742,79.3788,280.7637,0,U,50471,999,21914,-.90652233E-4,-.22E-6,0
ONEWEB-0392,2021-132D,2026-06-25T01:17:36.956544,13.17649787,.00021215,87.9142,4.2823,80.8704,279.2668,0,U,50472,999,21915,.18928012E-3,.86E-6,0
ONEWEB-0393,2021-132E,2026-06-25T06:10:24.303072,13.17650041,.0001952,87.9132,4.2585,85.0562,275.0792,0,U,50473,999,21917,.20843002E-3,.94E-6,0
ONEWEB-0394,2021-132F,2026-06-24T23:44:32.657568,13.18688353,.00017648,87.9174,333.8895,89.7775,270.3559,0,U,50474,999,22262,-.4141091E-5,.11E-6,0
